#dP2019  7 17  0  0  0.00000000      96 __u+U ITR00 FIT  IAC
## 2062 259200.00000000   900.00000000 58681 0.0000000000000
+   99   C01C02C03C04C05C06C07C08C09C10C11C12C13C14C16E01E02
+        E03E04E05E07E08E09E11E12E13E14E15E18E19E21E24E25E26
+        E27E30E31E33E36G01G02G03G05G06G07G08G09G10G11G12G13
+        G14G15G16G17G18G19G20G21G22G23G24G25G26G27G28G29G30
+        G31G32J01J02J03J07R01R02R03R04R05R06R07R08R09R10R11
+        R12R13R14R15R16R17R18R19R20R21R22R23R24R26  0  0  0
++        13 13 13 13 13  9  9  9  8  8  8  8  8  7  8  5  5
++         5  5  5  5  5  5  5  5  5  5  5  5  5  5  5  5  5
++         5  5  5  5  5  3  3  3  3  3  3  3  3  3  3  3  3
++         4  3  3  3  3  3  3  3  3  3  3  3  4  3  3  3  3
++         3  4  8  8  8  0  5  5  5  5  5  8  5  5  5  5  5
++         5  6  5  5  6  5  5  6  6  5  5  5  6  8  0  0  0
%c M  cc GPS ccc cccc cccc cccc cccc ccccc ccccc ccccc ccccc
%c cc cc ccc ccc cccc cccc cccc cccc ccccc ccccc ccccc ccccc
%f  0.0000000  0.000000000  0.00000000000  0.000000000000000
%f  0.0000000  0.000000000  0.00000000000  0.000000000000000
%i    0    0    0    0      0      0      0      0         0
%i    0    0    0    0      0      0      0      0         0
/* INFORMATION & ANALYSIS CENTER (IAC) OF MCC   (RAPID DATA)
/* S/V CLOCKS ARE ALIGNED TO GPS & GLONASS TIME RESPECTIVELY
/* USING THE BROADCAST EPHEMERIS                            
/* PCV:IGS14_2056 OL/AL:FES2004  NONE     YN ORB:CoN CLK:CoN
*  2019 07 17 12 30  0.00000000
PC01 -32335.688653  27055.261442  -1022.561051    848.322693
PC02   4391.259566  41918.031600   1202.805004     29.567744
PC03 -14829.301494  39499.343770   -109.406541    773.586936
PC04 -39632.783252  14396.591856   -513.116448    172.198900
PC05  21957.288906  36017.576129    986.160116   -397.980035
PC06  -6865.970664  31448.053977  27769.477161    541.002392
PC07 -20568.143328  22682.725598 -29033.584204     -8.558553
PC08 -20319.448960  36510.138466   4226.475879    168.175276
PC09   4123.810988  38783.718080  16687.186955   -180.334271
PC10  -3713.671524  25728.206546 -33060.985678      4.678415
PC11   9153.543881  23679.475109  11563.329725    264.118326
PC12  -7889.436662  22452.905983 -14447.399544    873.455012
PC13 -11014.281849  37462.048297  15617.517791   -848.402901
PC14   8222.772018  18670.883891  19124.806677    528.955235
PC16  -4289.411284  32518.445234  26628.523501   -889.674591
PE01   4403.325189  15727.040051 -24684.484055   -649.005395
PE02  -4484.531433 -15710.326576  24684.235407     69.639170
PE03 -11371.483606 -24954.902231 -11154.176246   -189.289060
PE04  22455.859201  17931.123293  -7081.757473   -325.217569
PE05   6501.921758 -17407.644258 -23032.907557   -465.713680
PE07 -20480.480331   -274.602752  21386.933543   -228.204847
PE08 -22610.352009 -17693.894285   7244.469241   6322.518413
PE09  20347.374961    154.783238 -21479.073356   6376.094544
PE11  18070.996838 -10657.818365  20863.641806   5651.351942
PE12  12908.681036  11700.518674  23929.192388   6293.800362
PE13 -17965.671257  10636.712780 -20984.277003    390.051099
PE14  11777.673204  22979.161567   4626.560248   -646.237878
PE15 -13079.744234 -11218.968443 -24065.164800    902.821244
PE18 -20312.940306 -15022.749022 -17972.086118   -741.790001
PE19   9818.686775  24783.028498  12878.828377     -5.166546
PE21 -17396.898038  15711.583344 -18081.180138   -544.671759
PE24  28883.329125  -6407.071116   1069.840913   5972.475670
PE25  17439.111467 -15696.661339  18046.256921   1739.793530
PE26 -12546.147687  26237.681712  -5501.414319   4330.351094
PE27 -28889.993189   6410.427613   -818.466398    427.204551
PE30 -23500.532293  -6669.727881  16709.709533   4703.676656
PE31  23396.090668   6618.488015 -16864.902191   -466.605548
PE33    517.082697  26562.762921  13057.376966   -469.885911
PE36  12333.054502 -26319.510986   5590.264526    686.361368
PG01  13378.927544 -22280.763428  -4756.596337    -69.793264
PG02 -19277.087575  10700.913226 -14097.601643   -262.141962
PG03   8924.069146 -13546.838113 -21060.503609    180.597712
PG05 -25177.705716   3084.594334   8098.469529     -0.015348
PG06 -14924.712015  -4439.391436 -21480.856836    146.929753
PG07   1182.930480 -20544.575148  16790.964972    -66.166731
PG08   8829.761015 -14691.562791  20261.236857   -151.529309
PG09  -7428.069481 -25143.495176  -4258.802108    368.913700
PG10  20661.338786  11449.410228  12408.818375    -19.216765
PG11   8818.190238 -24708.442846   4449.154639   -558.987414
PG12 -12275.139185  11566.306238 -20688.861381    223.042855
PG13 -14332.008681   4520.064121  21789.867501    -54.199910
PG14  16361.347094  11479.994461 -17256.633256    -71.108439
PG15  -7903.921560  16007.602683  19280.802944   -300.322386
PG16  25431.880329    124.178981   8199.909234    -56.972359
PG17 -14619.818883 -18766.737581 -11496.291952     90.246479
PG18  17097.690682 -19764.018565   3855.465279     70.575212
PG19 -15852.543978 -12850.166917 -17276.013524   -293.018481
PG20  12791.667769  13968.820694  18578.246866    526.002248
PG21   4441.500664  18334.779373  19555.704603   -153.095886
PG22  16406.606474 -11749.011861 -16999.501169   -732.222784
PG23   2757.750891 -21232.372644 -15112.212215   -176.815247
PG24 -14173.317014  22212.103995  -1371.872859    -68.927731
PG25   2770.599116  15400.556885 -21704.593434     -1.555283
PG26  26197.564052   4424.880604  -2201.888861    253.385795
PG27  15256.128958  -1192.484625  21629.634442   -187.479368
PG28 -19176.912288 -13378.877489  13104.386281    766.333358
PG29   3205.787401  25271.468070  -7530.286158    149.137915
PG30  -8388.449035 -13869.876303  21043.340236   -144.902301
PG31  16443.660349   2887.696782 -20754.352626     23.705146
PG32  16238.793413  17547.386641 -11632.872198      0.591194
PJ01 -27675.420758  22026.639218  28078.104318   -271.655294
PJ02 -35898.707122  20366.440211  -4266.289325     -1.244367
PJ03 -18785.194476  26683.362724 -22019.315493      0.020353
PJ07      0.000000      0.000000      0.000000 999999.999999
PR01 -18697.234304  -3044.342289  17097.680252     46.837747
PR02  -2401.572971  11543.114696  22668.397022    378.754510
PR03  13376.299963  17429.679214  13042.014369     -1.558405
PR04  21520.466593  12879.687373  -4677.664781    314.132317
PR05  17209.081676   1621.456224 -18752.088866     32.067541
PR06   1465.624012 -12183.264076 -22364.369244    158.272253
PR07 -13763.615641 -17412.762917 -12498.786990    -23.552709
PR08 -21429.188175 -13242.446073   4043.111791     16.702037
PR09  12588.312696 -14489.543922  16775.975313     80.575388
PR10  -2384.534708 -10605.828922  23054.727347     54.594528
PR11 -19041.622968   -539.774674  17010.417887    -72.967442
PR12 -23610.801718   9404.006269   2119.843926     44.425162
PR13 -14446.345477  14499.807184 -15243.876085    -26.013654
PR14   2674.499061  10781.943622 -22948.419832     41.039866
PR15  18388.675389   1003.047644 -17624.022407    103.121721
PR16  23499.316416  -9890.911929  -1928.567555      7.397479
PR17   1514.477789  23797.194265   9009.393368    244.364136
PR18   8380.013219  11459.793469  21213.744444      0.555064
PR19  10886.865607  -6811.189952  22033.789889    -42.631932
PR20   7103.892235 -22824.334505   8841.611475   -384.569752
PR21  -1783.803505 -23556.846029  -9662.644010    -60.330049
PR22  -9105.073735  -8454.617726 -22257.860522    -28.827399
PR23 -10358.158696  12646.917134 -19595.011857    241.241244
PR24  -5975.560006  23788.539108  -7061.688654   -182.706049
PR26   7712.560143 -21398.764524  11578.280325    -15.835794
EOF
